#aV2007 12 11  0  0   .00000000      96 DD+AD WGS84 FIT  NGA
## 1457 172800.00000000   900.00000000 54445  .0000000000000
+   31     1  2  3  4  5  6  7  8  9 10 11 12 13 14 15 16 17
+         18 19 20 21 22 23 24 25 26 27 28 30 31 32  0  0  0
+          0  0  0  0  0  0  0  0  0  0  0  0  0  0  0  0  0
+          0  0  0  0  0  0  0  0  0  0  0  0  0  0  0  0  0
+          0  0  0  0  0  0  0  0  0  0  0  0  0  0  0  0  0
++         0  0  0  0  0  0  0  0  0  0  0  0  0  0  0  0  0
++         0  0  0  0  0  0  0  0  0  0  0  0  0  0  0  0  0
++         0  0  0  0  0  0  0  0  0  0  0  0  0  0  0  0  0
++         0  0  0  0  0  0  0  0  0  0  0  0  0  0  0  0  0
++         0  0  0  0  0  0  0  0  0  0  0  0  0  0  0  0  0
%c cc cc ccc ccc cccc cccc cccc cccc ccccc ccccc ccccc ccccc
%c cc cc ccc ccc cccc cccc cccc cccc ccccc ccccc ccccc ccccc
%f  0.0000000  0.000000000  0.00000000000  0.000000000000000
%f  0.0000000  0.000000000  0.00000000000  0.000000000000000
%i    0    0    0    0      0      0      0      0         0
%i    0    0    0    0      0      0      0      0         0
/*      NGA, ST. LOUIS,MO.                                  
/*   EPHEMERIS COMPUTED FROM  3 DAYS OF DATA                
/* CCCCCCCCCCCCCCCCCCCCCCCCCCCCCCCCCCCCCCCCCCCCCCCCCCCCCCCCC
/* CCCCCCCCCCCCCCCCCCCCCCCCCCCCCCCCCCCCCCCCCCCCCCCCCCCCCCCCC
*  2007 12 11  9  0   .00000000                                                 
P  1  14533.252069 -18428.070508  12578.769125    171.889131                    
V  1  14139.475448  -6769.749881 -26794.640396       .024197                    
P  2    998.506686  16800.917417  20426.908642    157.544063                    
V  2 -24197.197433 -10457.263804   9382.044725       .028303                    
P  3   3311.534110 -19892.031477 -17356.840379    156.678276                    
V  3  18241.076370 -12220.450461  18082.484229       .053001                    
P  4 -12595.988189  10578.319671  20830.776256    -35.484580                    
V  4 -23569.003187 -12429.903701  -7542.586603      -.050833                    
P  5  15158.469154  12377.555679  17758.583806    590.451349                    
V  5   1897.277267  23083.682934 -17313.149941       .206941                    
P  6  22085.142538  -2817.849131  14679.469015    193.235366                    
V  6 -13223.392154  13062.406623  22652.770627      -.118392                    
P  7  22828.959786  -6132.739675  12473.788587    -25.071762                    
V  7 -10354.647431  11713.065568  25360.041229      -.033576                    
P  8 -19285.920956   3393.162205 -18256.789075   -133.039138                    
V  8 -19538.190742 -11715.836830  18104.167872      -.013462                    
P  9  20365.558033  15269.104693  -8510.418140    100.523187                    
V  9  -9915.616890  -2046.203194 -29370.042217       .016141                    
P 10   1250.934004  26349.128015     95.589514   -170.247405                    
V 10  -2938.681074   -120.288125  32095.690488      -.120078                    
P 11 -23017.600212 -11907.541199  -6668.704369     26.511123                    
V 11   9190.038592  -2019.513993 -28380.754959       .002520                    
P 12  12174.580204  17898.974628  15527.636055   -351.050999                    
V 12   -410.407380  19607.154434 -22341.074799      -.011383                    
P 13 -22594.434032   3899.241523  13281.845261    227.104523                    
V 13  13670.780282 -10189.977590  26068.680249       .025132                    
P 14  21441.144305 -15459.949671   2083.874587   -313.938886                    
V 14   3199.115665    307.408697 -32283.782973       .027192                    
P 15   6315.310075  14109.959113 -21569.345029    -72.130703                    
V 15 -22713.911586  15451.365352   3431.978513       .021891                    
P 16   2212.405570 -25842.189186   5365.974698    128.469817                    
V 16   3139.928839   6579.432703  30965.839103       .014008                    
P 17 -21682.688681  15179.168260    829.509769     46.918993                    
V 17  -2528.814523  -1918.821647 -31790.019345      -.009620                    
P 18  15351.049833   -495.233315 -21498.798664   -220.043458                    
V 18   1166.392990  27716.454179   -149.068336       .024974                    
P 19  -5881.135360 -14181.257490 -21580.373417     11.485577                    
V 19  23979.134427 -13724.316553   2628.264859       .018735                    
P 20 -13561.298452 -15180.675569  16980.182706    124.707868                    
V 20    -10.855203 -21864.342240 -19391.823569      -.006883                    
P 21  24344.158036   3963.577698 -10443.456934     75.413776                    
V 21  10607.717408   8501.649688  26961.068409      -.005315                    
P 22  12030.387828 -15861.708707 -17402.396050    204.940777                    
V 22   2623.427825  22399.258160 -18469.192413       .007077                    
P 23 -15585.086643  -6390.280889  20526.679038    316.950281                    
V 23  21184.177594 -15304.070801  11057.704234       .032534                    
P 24  23086.583740  12802.822785    223.315937     52.961287                    
V 24  -1631.513323   2839.622716  31807.209680       .032158                    
P 25 -25319.485327  -6401.357178  -3989.348232    489.796899                    
V 25  -4193.760324  -4633.599103  31355.844098       .040382                    
P 26   3044.260478  15045.680664 -22050.039289    122.333174                    
V 26 -23141.600290  13763.638483   6865.677910       .115567                    
P 27 -24346.658014  -2611.322446  -9862.314244    153.426469                    
V 27 -11531.907759  -7259.737045  28299.632371       .023827                    
P 28 -12689.360032  12684.668555 -19111.002586    -11.832901                    
V 28  -2792.236027 -25029.928149 -14834.284619      -.007203                    
P 30  15479.739410   5782.957434  20482.334666     55.661288                    
V 30   2115.120436  26721.929504  -8901.117709       .013933                    
P 31   9561.341695 -12150.364907  21808.222604      -.931262                    
V 31  24409.791133  11957.720343  -3999.900589      -.014439                    
P 32   7101.205142 -23385.802330 -10119.246276    167.832666                    
V 32   2084.682624  13485.885607 -28254.935359       .122472                    
EOF
